[
  { "name": "Viennia Sturm", "address": "", "zip": "17565", "id": "ea0c4" },
  {
    "name": "Amerah Lang",
    "address": "5037 Providence Bouled",
    "zip": "44109",
    "id": "8d322"
  },
  {
    "name": "Wendolyn Sweat",
    "address": "1521 Gem Avenue",
    "zip": "77701",
    "id": "a6b3b"
  },
  {
    "name": null,
    "address": "3132 Rowan Avenue",
    "zip": "09368",
    "id": "84701"
  },
  {
    "name": "Dorrin Castle",
    "address": "1435 Locust Street",
    "zip": "35219",
    "id": "d9850"
  },
  {
    "name": "Clarice Collier",
    "address": "9986 Vale Passage",
    "zip": null,
    "id": "e6f19"
  },
  {
    "name": "Celia Sparrow",
    "address": "9644 Bury Street",
    "zip": "28664",
    "id": "85955"
  },
  {
    "name": "Hermonah Shephard",
    "address": "9834 Greenfield Street",
    "zip": "81645",
    "id": "2ef5a"
  },
  { "name": "", "address": null, "zip": "78159", "id": "01190" },
  {
    "name": "Aciano Stoddard",
    "address": "8056 Victory Way",
    "zip": "10925",
    "id": "2d4b6"
  },
  { "name": null, "address": "9481 Ivy Lane", "zip": "22748", "id": "e0701" },
  {
    "name": "Sharmaine Crenshaw",
    "address": null,
    "zip": "00000",
    "id": "53a6a"
  },
  {
    "name": "Schmuela Finley",
    "address": "6990 Feathers Avenue",
    "zip": "60136",
    "id": "2e3e3"
  },
  {
    "name": "Tonnya Pate",
    "address": "3623 Sunny Row",
    "zip": "",
    "id": "0d2c9"
  },
  {
    "name": null,
    "address": "2964 Bury Street",
    "zip": "30564",
    "id": "42b81"
  },
  {
    "name": "Cranlee Kimbrell",
    "address": "3645 Crimson Avenue",
    "zip": "39647",
    "id": "1561b"
  },
  { "name": null, "address": "5079 Clove Lane", "zip": "05904", "id": "48193" },
  { "name": null, "address": "1873 Fox Street", "zip": "11780", "id": "03552" },
  {
    "name": "Kendrie Harmon",
    "address": "5712 Auburn Avenue",
    "zip": "77406",
    "id": "c2e4a"
  },
  {
    "name": "Wendell Shifflett",
    "address": "6505 Knight Street",
    "zip": null,
    "id": "872e0"
  },
  {
    "name": "Soloma Her",
    "address": "8769 Mount Avenue",
    "zip": "foo",
    "id": "978ec"
  },
  {
    "name": null,
    "address": "8020 Lilypad Avenue",
    "zip": "15244",
    "id": "90aab"
  },
  {
    "name": "Xuan Flint",
    "address": "3508 Meadow Street",
    "zip": "",
    "id": "2683c"
  },
  {
    "name": "Ninette Pitre",
    "address": "6525 Polygon Route",
    "zip": "31501",
    "id": "b3297"
  },
  {
    "name": "Gerhardt Croft",
    "address": "810 Olive Avenue",
    "zip": "",
    "id": "2438c"
  },
  {
    "name": "Silke Harper",
    "address": "5848 Oval Lane",
    "zip": "28544",
    "id": "69168"
  },
  { "name": "Yolonda Sepulveda", "address": "", "zip": "47229", "id": "3f93e" },
  { "name": "Sergiu Fagan", "address": null, "zip": "53511", "id": "33552" },
  { "name": "Deloras Haugen", "address": null, "zip": null, "id": "0266f" },
  {
    "name": "Raelina Aldridge",
    "address": "2303 Marble Way",
    "zip": "32183",
    "id": "23e89"
  },
  {
    "name": "Alton Chan",
    "address": "5340 Upper Lane",
    "zip": "48177",
    "id": "b0475"
  },
  {
    "name": "Florus Blaylock",
    "address": "8510 Bridgeway Street",
    "zip": "62756",
    "id": "608ee"
  },
  {
    "name": "Nyada Burnette",
    "address": "8623 Beaver Bouled",
    "zip": "54429",
    "id": "2e356"
  },
  {
    "name": "Chevaun Sanborn",
    "address": "3560 Jade Way",
    "zip": "47957",
    "id": "f55f6"
  },
  { "name": null, "address": null, "zip": null, "id": "bb59e" },
  {
    "name": "Calandre Rea",
    "address": "536 Parkside Lane",
    "zip": "80498",
    "id": "fb6c3"
  },
  {
    "name": "",
    "address": "7699 Greenfield Street",
    "zip": null,
    "id": "ac69d"
  },
  {
    "name": "Stana Fortenberry",
    "address": "5019 Hill Lane",
    "zip": "32360",
    "id": "57ebf"
  },
  {
    "name": "Yolonda Sepulveda",
    "address": "8988 Brown Avenue",
    "zip": "37165",
    "id": "7f335"
  },
  {
    "name": "Euphemios Diaz",
    "address": "8375 Bridgeway Street",
    "zip": "63439",
    "id": "7e89e"
  },
  {
    "name": "Lanie Driver",
    "address": "1380 Greenfield Street",
    "zip": "43547",
    "id": "045d0"
  },
  { "name": "", "address": "5579 Luna Lane", "zip": "09858", "id": "75dbb" },
  {
    "name": "Barrett Gurley",
    "address": "1609 Gray Bouled",
    "zip": "80829",
    "id": "f75d1"
  },
  { "name": "Chiquita Bivens", "address": null, "zip": "80622", "id": "fe214" },
  {
    "name": "Forsythia Owen",
    "address": "2518 Moon Street",
    "zip": "28649",
    "id": "83024"
  },
  {
    "name": "Lacreshia Sena",
    "address": "7302 Low Way",
    "zip": "46704",
    "id": "912f0"
  },
  {
    "name": "Shandel Key",
    "address": "9615 Summit Way",
    "zip": "19086",
    "id": "2a534"
  },
  { "name": null, "address": "4421 Cross Way", "zip": "05036", "id": "5845a" },
  {
    "name": "",
    "address": "893 Saffron Passage",
    "zip": "72029",
    "id": "eef23"
  },
  {
    "name": "Germaine Burkhart",
    "address": "2375 Coral Lane",
    "zip": "78789",
    "id": "f26be"
  },
  {
    "name": "Awilda Oliver",
    "address": "5984 Cross Way",
    "zip": "24212",
    "id": "c4a07"
  },
  {
    "name": "",
    "address": "9801 Ironwood Avenue",
    "zip": "68328",
    "id": "2baec"
  },
  {
    "name": "Arakne Tuck",
    "address": "2318 Lilypad Avenue",
    "zip": "28337",
    "id": "27dda"
  },
  {
    "name": "Donte Heckman",
    "address": "1760 Silver Street",
    "zip": "33093",
    "id": "67946"
  },
  {
    "name": "Selden Mccabe",
    "address": "3031 Providence Bouled",
    "zip": "41812",
    "id": "df70d"
  },
  {
    "name": "Dominik Cline",
    "address": "8577 Winter Avenue",
    "zip": "",
    "id": "b834d"
  },
  {
    "name": "Ignacio Elizondo",
    "address": "4154 Chapel Street",
    "zip": "01603",
    "id": "072f1"
  },
  {
    "name": "Abdualla Kimmel",
    "address": "7916 Water Row",
    "zip": "",
    "id": "0cfc1"
  },
  {
    "name": "Cecely Keel",
    "address": "7358 Gravel Row",
    "zip": "45232",
    "id": "4e277"
  },
  { "name": null, "address": "6915 Aurora Lane", "zip": "", "id": "76f8d" },
  {
    "name": "Ryette Devore",
    "address": "4297 Castle Lane",
    "zip": "04952",
    "id": "b191b"
  },
  {
    "name": "Nicodemo Wadsworth",
    "address": "6320 Cross Way",
    "zip": "30157",
    "id": "8e11d"
  },
  {
    "name": "Retta Bandy",
    "address": "2773 Juniper Avenue",
    "zip": "",
    "id": "76e47"
  },
  { "name": null, "address": "6656 Autumn Way", "zip": "97268", "id": "219a1" },
  {
    "name": "Elado Lipscomb",
    "address": "2026 Gravel Row",
    "zip": "58367",
    "id": "3a5bb"
  },
  { "name": null, "address": null, "zip": "alkdfjadlsfrjdsfrs", "id": "f4f1c" },
  {
    "name": "Rickwerd Pickard",
    "address": "5577 Monument Avenue",
    "zip": null,
    "id": "ad225"
  },
  { "name": "Cloe Rousseau", "address": null, "zip": "19176", "id": "bb9d8" },
  {
    "name": "Selestine Bader",
    "address": "3098 Art Lane",
    "zip": null,
    "id": "cf2da"
  },
  {
    "name": "Selena Cottrell",
    "address": "494 Broom Avenue",
    "zip": "06080",
    "id": "bda1e"
  },
  {
    "name": "Donte Heckman",
    "address": "3174 Low Way",
    "zip": null,
    "id": "2e229"
  },
  {
    "name": "Myrla Woody",
    "address": "778 Dawn Lane",
    "zip": "15957",
    "id": "a1426"
  },
  { "name": "", "address": "4449 Art Lane", "zip": "15925", "id": "5e9f3" },
  {
    "name": "Nyada Burnette",
    "address": "7828 Willow Lane",
    "zip": "35022",
    "id": "fabac"
  },
  {
    "name": "Victor Chun",
    "address": "6483 Lilypad Avenue",
    "zip": "30294",
    "id": "01135"
  },
  {
    "name": "Dinora Albers",
    "address": "2799 Olive Avenue",
    "zip": "",
    "id": "ae586"
  },
  {
    "name": null,
    "address": "1661 Gilded Bouled",
    "zip": "73089",
    "id": "f5f2e"
  },
  { "name": "Gilburt Kruger", "address": null, "zip": "76513", "id": "3f67b" },
  { "name": "Myrla Woody", "address": "", "zip": "17729", "id": "afcda" },
  {
    "name": "Calandre Rea",
    "address": "265 Forest Avenue",
    "zip": "33622",
    "id": "a1594"
  },
  {
    "name": "Deloras Haugen",
    "address": "6189 Bath Route",
    "zip": "10286",
    "id": "0bb47"
  },
  {
    "name": "Cloe Rousseau",
    "address": "3370 Judge Row",
    "zip": "60673",
    "id": "ea651"
  },
  { "name": "Lanie Driver", "address": "", "zip": "62449", "id": "162ea" },
  {
    "name": null,
    "address": "435 Heart Avenue",
    "zip": "49664",
    "id": "439a2"
  },
  {
    "name": "Elado Lipscomb",
    "address": "3264 Upper Lane",
    "zip": "83706",
    "id": "fed91"
  },
  { "name": null, "address": "613 Clove Lane", "zip": "56187", "id": "b14f7" },
  {
    "name": "Jenasys Massey",
    "address": "9754 Olive Avenue",
    "zip": "",
    "id": "54e25"
  },
  {
    "name": null,
    "address": "9670 Bridgeway Street",
    "zip": "47126",
    "id": "15c33"
  },
  {
    "name": "Coreen Tuggle",
    "address": "4515 Saffron Avenue",
    "zip": null,
    "id": "9d53f"
  },
  {
    "name": "James Mayes",
    "address": "9687 Knight Street",
    "zip": "08089",
    "id": "beebf"
  },
  {
    "name": "Tonnya Pate",
    "address": "919 Lotus Bouled",
    "zip": "14024",
    "id": "bdbba"
  },
  { "name": "Selden Mccabe", "address": "3971 Union Way", "id": "a4f1c" },
  { "name": "Melicent Peoples", "address": "", "zip": "30386", "id": "445c9" },
  { "name": null, "address": "8717 Wharf Way", "zip": "87108", "id": "f297c" },
  { "name": "Chiquita Bivens", "address": null, "zip": "", "id": "90c4d" },
  { "name": "", "address": "2686 Lotus Bouled", "zip": "36522", "id": "5ccd0" },
  {
    "name": "Barrett Gurley",
    "address": "7133 Snowflake Route",
    "zip": "",
    "id": "b64b0"
  },
  {
    "name": "Brodrick Roark",
    "address": "1788 Legend Avenue",
    "zip": null,
    "id": "ef321"
  },
  { "name": null, "address": "", "zip": "56239", "id": "82d87" },
  {
    "name": "",
    "address": "2686 Feathers Route",
    "zip": "37227",
    "id": "18081"
  },
  {
    "name": "Jacques Colvin",
    "address": null,
    "zip": "000000000000000000000000000",
    "id": "1f032"
  },
  {
    "name": "Marcenia Drummond",
    "address": "3150 Low Route",
    "zip": "21713",
    "id": "ac38b"
  },
  {
    "name": "Sicily Charles",
    "address": "4739 Coral Lane",
    "zip": "92694",
    "id": "a5683"
  },
  {
    "name": "Rozalynne Farias",
    "address": "101 Aurora Avenue",
    "zip": "62465",
    "id": "04e48"
  },
  {
    "name": "Rosalind Guinn",
    "address": "8638 Bridgeway Street",
    "zip": "00",
    "id": "c018c"
  },
  { "name": null, "address": "5567 King Passage", "zip": "0", "id": "9c9f4" },
  {
    "name": "Gilburt Kruger",
    "address": "233 Rowan Avenue",
    "zip": null,
    "id": "bfc47"
  },
  {
    "name": "Myshella Dasilva",
    "address": "7435 Ash Avenue",
    "zip": "000000000000000000000000000",
    "id": "7d8a5"
  },
  {
    "name": "Forsythia Owen",
    "address": "8179 Bury Street",
    "zip": "06456",
    "id": "c45c1"
  },
  { "name": null, "address": null, "zip": "", "id": "9f32f" },
  {
    "name": "Lacole Barksdale",
    "address": "5310 Maple Avenue",
    "zip": "12570",
    "id": "192d6"
  },
  {
    "name": "Jamison Butler",
    "address": "8229 Canal Lane",
    "zip": "54160",
    "id": "db745"
  },
  {
    "name": "Selden Mccabe",
    "address": "9672 Mandarin Route",
    "zip": "24549",
    "id": "541ce"
  },
  {
    "name": "Corlie Hussey",
    "address": "3919 Legend Bouled",
    "zip": "93381",
    "id": "ada45"
  },
  {
    "name": "Stina Watson",
    "address": "6026 Locust Street",
    "zip": "60194",
    "id": "b2322"
  },
  {
    "name": "Henny Mccollum",
    "address": "6121 Feathers Route",
    "zip": "72774",
    "id": "caddd"
  },
  {
    "name": null,
    "address": "6414 Auburn Avenue",
    "zip": "77521",
    "id": "13dfc"
  },
  {
    "name": "Stina Watson",
    "address": "562 Monument Avenue",
    "zip": "09470",
    "id": "853c7"
  },
  { "name": "Merline Jewett", "address": "", "zip": "31702", "id": "18840" },
  {
    "name": "Joanni Weber",
    "address": "799 King Passage",
    "zip": "0",
    "id": "85f1b"
  },
  {
    "name": "Florus Blaylock",
    "address": "417 Low Way",
    "zip": "000",
    "id": "0c2e2"
  },
  {
    "name": "Germaine Burkhart",
    "address": "5371 Oak Lane",
    "zip": "alkdfjadlsfrjdsfrs",
    "id": "07745"
  },
  {
    "name": "Dorie Bivens",
    "address": "7903 Olive Avenue",
    "zip": "18040",
    "id": "825d4"
  },
  { "name": "", "address": "1613 Gravel Row", "zip": "10511", "id": "a0746" },
  {
    "name": "Dorie Bivens",
    "address": "576 Snowflake Route",
    "zip": null,
    "id": "214f5"
  },
  { "name": "Eyrica Carman", "address": "", "zip": "39754", "id": "3d9d0" },
  { "name": "Erol Bridges", "zip": "38161", "id": "b4ba0" },
  {
    "name": "Burchell French",
    "address": "9846 Brown Avenue",
    "zip": "47629",
    "id": "0e7f8"
  },
  { "name": "", "address": "3944 Autumn Way", "zip": "49413", "id": "70821" },
  {
    "name": "Abdualla Kimmel",
    "address": "3522 Canal Lane",
    "zip": "000",
    "id": "07ef9"
  },
  {
    "name": "Amie Schumacher",
    "address": "9458 Ivy Lane",
    "zip": "46221",
    "id": "f573d"
  },
  {
    "name": "Carmeli Ragland",
    "address": "3519 Arctic Street",
    "zip": "75230",
    "id": "106fa"
  },
  {
    "name": "Isabella Evans",
    "address": "2685 Wharf Way",
    "zip": "34429",
    "id": "375f7"
  },
  {
    "name": "Rexanne Hairston",
    "address": "5720 Luna Lane",
    "zip": "47616",
    "id": "5ce40"
  },
  {
    "name": "Tennyson Dowdy",
    "address": "810 Marble Way",
    "zip": "70469",
    "id": "c02a1"
  },
  {
    "name": "Melisse Brink",
    "address": "4710 Gem Avenue",
    "zip": "82009",
    "id": "81107"
  },
  {
    "name": "Tosha Gibson",
    "address": "1178 Moon Street",
    "zip": "56345",
    "id": "e56a8"
  },
  { "name": "", "address": "1258 Cave Route", "zip": "90272", "id": "2c610" },
  {
    "name": "Autrey Hinkle",
    "address": "7704 Judge Row",
    "zip": "38744",
    "id": "9b981"
  },
  {
    "name": "Millborn Rohr",
    "address": "3881 Snowflake Route",
    "zip": "000",
    "id": "eaeb5"
  },
  {
    "name": "Johannah Mcfadden",
    "address": "2825 Arctic Street",
    "zip": "",
    "id": "047bd"
  },
  { "name": "", "address": "7007 Monument Avenue", "zip": null, "id": "cbfb0" },
  { "name": "", "address": "1126 Flint Avenue", "id": "cef12" },
  { "name": "Isabella Evans", "address": "", "zip": "34058", "id": "ee0b2" },
  {
    "name": "",
    "address": "8565 Aurora Avenue",
    "zip": "68863",
    "id": "135a9"
  },
  {
    "name": "",
    "address": "6433 Forest Avenue",
    "zip": "29356",
    "id": "77151"
  },
  {
    "name": "",
    "address": "8891 Lilypad Avenue",
    "zip": "19360",
    "id": "ad5b1"
  },
  { "name": "", "address": "4976 Fox Street", "zip": "90220", "id": "a4c69" },
  {
    "name": "Alethia Newberry",
    "address": "5940 Bury Street",
    "zip": "49084",
    "id": "c8e7e"
  },
  { "name": "", "address": "7177 Ivy Street", "zip": "30619", "id": "2961d" },
  { "name": "", "address": "263 Feathers Avenue", "zip": null, "id": "bb62f" },
  {
    "name": "Coreen Tuggle",
    "address": "4101 Oval Lane",
    "zip": "44309",
    "id": "27976"
  },
  {
    "name": "Josalynn Quinlan",
    "address": "6886 Cave Route",
    "zip": "",
    "id": "e2483"
  },
  {
    "name": "Greta Blunt",
    "address": "6246 Mandarin Route",
    "zip": "72712",
    "id": "6fae7"
  },
  {
    "name": "Henny Mccollum",
    "address": "539 Lavender Bouled",
    "zip": "999999999999999999999999 my 9 key is broken help me 99999999999999999999999999999999999999999999",
    "id": "d6108"
  },
  { "name": null, "address": "2383 Castle Lane", "zip": "", "id": "f1af0" },
  { "name": "Azalee Mosher", "address": null, "zip": "84079", "id": "b20fa" },
  {
    "name": "Cloe Rousseau",
    "address": "8184 Knight Street",
    "zip": "40161",
    "id": "08b81"
  },
  {
    "name": "Nicodemo Wadsworth",
    "address": "1309 Ivy Street",
    "zip": "97141",
    "id": "05677"
  },
  {
    "name": "",
    "address": "7529 Shadow Bouled",
    "zip": "70380",
    "id": "660ff"
  },
  { "name": null, "address": "1117 Storm Way", "zip": "", "id": "ffa38" },
  {
    "name": "James Mayes",
    "address": "9387 University Avenue",
    "zip": null,
    "id": "5bdb8"
  },
  {
    "name": "Darchelle Wright",
    "address": "4632 Greenfield Street",
    "zip": "60421",
    "id": "3ba23"
  },
  { "name": "Silvain Howard", "address": null, "zip": "", "id": "d3e15" },
  {
    "name": "Mannyng Burris",
    "address": "4630 Fleet Row",
    "zip": "44648",
    "id": "aecb0"
  },
  {
    "name": "Jaynell Villasenor",
    "address": "3188 Station Avenue",
    "zip": "43015",
    "id": "7648d"
  },
  {
    "name": "Erol Bridges",
    "address": "6033 Heart Avenue",
    "zip": "11103",
    "id": "49a5b"
  },
  { "name": "Didier Wang", "address": null, "zip": "59821", "id": "4a33b" },
  {
    "name": "Cecely Keel",
    "address": "2446 Feathers Avenue",
    "zip": "39156",
    "id": "784cb"
  },
  {
    "name": "Bill Mendoza",
    "address": "9848 Gravel Row",
    "zip": "33055",
    "id": "063a2"
  },
  {
    "name": "Lilliah Kennedy",
    "address": "2596 Station Avenue",
    "zip": null,
    "id": "e38ad"
  },
  {
    "name": "Mackarios Rountree",
    "address": "2387 Feathers Route",
    "zip": "",
    "id": "f90be"
  },
  { "name": "Audie Mckeever", "address": "", "zip": "", "id": "9eb7b" },
  { "address": "5545 Bury Street", "zip": "07801", "id": "f086e" },
  { "name": "Victor Chun", "address": "", "zip": "", "id": "def82" },
  {
    "name": "Nweke Stout",
    "address": "9524 Meadow Street",
    "zip": "",
    "id": "c9288"
  },
  {
    "name": null,
    "address": "3225 Maple Avenue",
    "zip": "98020",
    "id": "0687b"
  },
  {
    "name": "Selena Cottrell",
    "address": "2851 Vale Passage",
    "zip": "61567",
    "id": "77f9b"
  },
  { "name": "Cindie Kessler", "address": null, "zip": "", "id": "dd855" },
  { "name": null, "address": "6649 Gem Avenue", "zip": "61273", "id": "3b920" },
  {
    "name": "Ryette Devore",
    "address": "6927 Meadow Street",
    "zip": "47138",
    "id": "57a28"
  },
  { "name": "", "address": "703 Forest Avenue", "zip": null, "id": "ffcc4" },
  {
    "name": "Thomson Moeller",
    "address": "2588 Ash Avenue",
    "zip": "64065",
    "id": "870bc"
  },
  {
    "name": "Georgine Spicer",
    "address": "6518 Broom Avenue",
    "zip": null,
    "id": "bf5c7"
  },
  {
    "name": "Cilly Long",
    "address": "5283 Beaver Bouled",
    "zip": "33684",
    "id": "c40ab"
  },
  {
    "name": "Claud Castro",
    "address": "1810 Storm Street",
    "zip": null,
    "id": "cafe6"
  },
  { "name": null, "address": "8589 Sunny Row", "zip": "95547", "id": "6e7f3" },
  { "name": "Margareta Counts", "zip": "56074", "id": "c38f0" },
  {
    "name": "Carrin Callahan",
    "address": "443 Cathedral Route",
    "zip": "56239",
    "id": "778fd"
  },
  {
    "name": "Cleona Ratcliff",
    "address": "4631 Gravel Row",
    "zip": "47022",
    "id": "3a11c"
  },
  {
    "name": "Joanni Weber",
    "address": "2818 Snowflake Route",
    "zip": "14061",
    "id": "91ec6"
  },
  {
    "name": "Shanta Worth",
    "address": "9562 Clove Lane",
    "zip": "15923",
    "id": "9fbf8"
  },
  {
    "name": "Ulysses Negrete",
    "address": "698 Innovation Street",
    "zip": "54610",
    "id": "a8ea2"
  },
  {
    "name": "Shawntile Newcomb",
    "address": "1690 Fleet Row",
    "zip": "62324",
    "id": "9a696"
  },
  {
    "name": "Carmeli Ragland",
    "address": "8434 Low Way",
    "zip": "",
    "id": "dbbf0"
  },
  {
    "name": "Jacques Colvin",
    "address": "6800 Winter Avenue",
    "zip": "73123",
    "id": "e4e26"
  },
  {
    "name": "Tennyson Dowdy",
    "address": "6760 Snowflake Route",
    "zip": "12204",
    "id": "da7e2"
  },
  {
    "name": "Myshella Dasilva",
    "address": "664 Bury Street",
    "zip": null,
    "id": "f3166"
  },
  { "name": "", "address": "8655 Cottage Lane", "zip": "06334", "id": "d7b79" },
  {
    "name": "Sheehan Loera",
    "address": "9121 Polygon Route",
    "zip": "75265",
    "id": "9f65a"
  },
  {
    "name": "Alynah Phipps",
    "address": "8738 Ironwood Avenue",
    "zip": "45612",
    "id": "ff871"
  },
  { "name": "Cade Nunley", "address": "", "zip": "", "id": "50f0f" },
  { "name": "Reney Fitzpatrick", "address": "", "zip": "00", "id": "d9dca" },
  {
    "name": "Burchell French",
    "address": "2252 Ash Avenue",
    "zip": "40472",
    "id": "0391f"
  },
  {
    "name": "Raymundo Cuellar",
    "address": null,
    "zip": "91102",
    "id": "ac538"
  },
  {
    "name": "Jaynell Villasenor",
    "address": "757 Canal Lane",
    "zip": "foo",
    "id": "c8113"
  },
  { "name": "Ina Beaty", "address": null, "zip": "97292", "id": "16e3d" },
  {
    "name": "Boden Medlin",
    "address": "6047 Gem Avenue",
    "zip": "30160",
    "id": "8d31b"
  },
  {
    "name": "Cilly Long",
    "address": "2924 Clove Route",
    "zip": "07806",
    "id": "1cfdd"
  },
  { "name": "Abdualla Kimmel", "address": "", "zip": "89833", "id": "3e997" },
  {
    "name": "Lenora Huey",
    "address": "7151 Cross Way",
    "zip": "41632",
    "id": "15ac9"
  },
  {
    "name": "Tiernan Mayberry",
    "address": "3418 Elm Avenue",
    "zip": "48111",
    "id": "5088f"
  },
  {
    "name": "Amitay Baines",
    "address": "7426 Judge Row",
    "zip": "72768",
    "id": "11ddd"
  },
  { "name": "Deloras Haugen", "address": null, "zip": "37422", "id": "81d73" },
  {
    "name": "Edwin Schmitt",
    "address": "9446 Canal Lane",
    "zip": "54498",
    "id": "51c2b"
  },
  {
    "name": "Nyada Burnette",
    "address": "7466 Blessing Avenue",
    "zip": "",
    "id": "b5dff"
  },
  { "name": "", "address": "5503 Oak Lane", "zip": null, "id": "8dbdb" },
  { "name": "", "address": null, "zip": null, "id": "d3705" },
  {
    "name": "Batchelor Temple",
    "address": "3687 Valley Lane",
    "zip": "",
    "id": "ed1af"
  },
  {
    "name": null,
    "address": "5992 Olive Avenue",
    "zip": "01784",
    "id": "57849"
  },
  { "name": "Arakne Tuck", "address": null, "zip": null, "id": "f4306" },
  {
    "name": "Ahilya Greenfield",
    "address": "1699 Providence Bouled",
    "zip": "0",
    "id": "0d878"
  },
  {
    "name": "Marcenia Drummond",
    "address": "8939 Luna Lane",
    "zip": "04644",
    "id": "eb945"
  },
  { "name": "Ahilya Greenfield", "zip": "26031", "id": "f2269" },
  {
    "name": "Kayla Holden",
    "address": "6022 Rowan Avenue",
    "zip": "79430",
    "id": "e2f65"
  },
  {
    "name": "Fatimah Vanburen",
    "address": "7435 Low Route",
    "zip": "56308",
    "id": "9bae1"
  },
  {
    "name": "Noura Barber",
    "address": "8768 Mill Row",
    "zip": "95665",
    "id": "c8568"
  },
  { "name": "Audie Mckeever", "address": "", "zip": null, "id": "1a970" },
  { "name": "Nweke Stout", "address": null, "zip": "", "id": "2b237" },
  { "name": null, "address": "3912 Clove Lane", "zip": "37243", "id": "0ad25" },
  {
    "name": "Aciano Stoddard",
    "address": "3542 Knight Street",
    "zip": "32358",
    "id": "cbcbe"
  },
  {
    "name": "Yussuf Gilson",
    "address": "134 Gem Avenue",
    "zip": "64840",
    "id": "fe22a"
  },
  {
    "name": "Gerhardt Croft",
    "address": "8320 Polygon Route",
    "zip": "30625",
    "id": "98c2d"
  },
  {
    "name": "Lavina Neumann",
    "address": "7528 Feathers Avenue",
    "zip": "12017",
    "id": "f442c"
  },
  { "name": null, "address": "3670 Upper Lane", "zip": "85715", "id": "6ccc9" },
  {
    "name": "Ulysses Negrete",
    "address": "3436 Greenfield Street",
    "zip": "85313",
    "id": "9fa54"
  },
  {
    "name": "Germaine Burkhart",
    "address": "8693 Beech Lane",
    "zip": "78480",
    "id": "048cc"
  },
  {
    "name": "Phillothea Wheeler",
    "address": "5076 Polygon Route",
    "zip": "09302",
    "id": "f9411"
  },
  { "name": "Christene Kraus", "address": "", "zip": "99224", "id": "f895c" },
  {
    "name": "Caitrinn Klinger",
    "address": "2236 Art Lane",
    "zip": "31005",
    "id": "d8b6b"
  },
  {
    "name": null,
    "address": "7797 Bury Street",
    "zip": "76652",
    "id": "070ad"
  },
  {
    "name": "Hutton Sam",
    "address": "3964 Rowan Avenue",
    "zip": "92596",
    "id": "8ac32"
  },
  { "name": "", "address": "", "zip": "13159", "id": "68ebc" },
  {
    "name": "Johannah Mcfadden",
    "address": "1330 Low Route",
    "zip": "33848",
    "id": "441cb"
  },
  {
    "name": "Shoshana Frantz",
    "address": "594 Luna Lane",
    "zip": "07092",
    "id": "90f5f"
  },
  {
    "name": "Lenora Huey",
    "address": "608 Juniper Avenue",
    "zip": null,
    "id": "46242"
  },
  { "name": "Panini Biddle", "address": null, "zip": "45888", "id": "6875a" },
  {
    "name": "Stefani Huggins",
    "address": "6715 Feathers Route",
    "zip": "78737",
    "id": "40cfd"
  },
  {
    "name": "Clarecia Blackwood",
    "address": "4956 Spring Lane",
    "zip": "62649",
    "id": "d7835"
  },
  {
    "name": "Porsche Ali",
    "address": "2327 Innovation Street",
    "zip": "58208",
    "id": "c769d"
  },
  { "name": "Annalisa Getz", "address": "", "zip": "05826", "id": "b5dec" },
  { "name": "Dawnn Wilkinson", "address": "", "zip": null, "id": "c7ddb" },
  { "name": "Boden Medlin", "zip": "48464", "id": "72604" },
  { "name": null, "address": "", "zip": "77316", "id": "82dda" },
  { "address": "730 Cottage Street", "zip": "05088", "id": "f40c1" },
  {
    "name": "Jarrod Lau",
    "address": "7451 Beech Lane",
    "zip": "",
    "id": "0586d"
  },
  {
    "name": "Hutton Sam",
    "address": "6192 Knight Street",
    "zip": "04050",
    "id": "ec5ef"
  },
  {
    "name": "Kalthum Nowlin",
    "address": "7399 Maple Avenue",
    "zip": "000000000000000000000000000",
    "id": "86c25"
  },
  {
    "name": "Myshella Dasilva",
    "address": "7982 Upper Lane",
    "zip": "87824",
    "id": "54d51"
  },
  {
    "name": "",
    "address": "302 Monument Avenue",
    "zip": "97283",
    "id": "cef35"
  },
  {
    "name": "Belton Hacker",
    "address": "8839 Broom Avenue",
    "zip": "",
    "id": "71a34"
  },
  {
    "name": "Xuan Flint",
    "address": "4029 Cottage Lane",
    "zip": null,
    "id": "7b994"
  },
  {
    "name": "Nicodemo Wadsworth",
    "address": "6729 Auburn Avenue",
    "zip": "55355",
    "id": "35cb9"
  },
  {
    "name": null,
    "address": "3762 Bury Street",
    "zip": "45384",
    "id": "84273"
  },
  {
    "name": "Annas Lofton",
    "address": "1352 Feathers Route",
    "zip": "38949",
    "id": "b8fd9"
  },
  { "name": "Boden Medlin", "address": "", "zip": "07880", "id": "b0148" },
  {
    "name": "Rexanne Hairston",
    "address": "706 Ivy Street",
    "zip": "21866",
    "id": "6ad58"
  },
  { "name": null, "address": "6299 Jade Way", "zip": "wut lol", "id": "7107e" },
  { "name": "Dorie Bivens", "address": "1976 Meadow Street", "id": "39120" },
  {
    "name": "Lilliah Kennedy",
    "address": "4514 Snowflake Route",
    "zip": "59443",
    "id": "a3eb9"
  },
  {
    "name": "Silvain Howard",
    "address": "4969 Vale Passage",
    "zip": "34476",
    "id": "20c20"
  },
  {
    "name": "Emonuel Luther",
    "address": "1330 Autumn Way",
    "zip": "0",
    "id": "6a5b0"
  },
  { "name": "Raguel Kellum", "address": "", "zip": "", "id": "a3fec" },
  {
    "name": null,
    "address": "3095 Vale Passage",
    "zip": "21638",
    "id": "1a71b"
  },
  {
    "name": null,
    "address": "6572 Monument Avenue",
    "zip": "35443",
    "id": "ffa63"
  },
  { "name": "", "address": "3403 Oak Lane", "zip": "wut lol", "id": "65ac4" },
  {
    "name": "Alton Chan",
    "address": "1105 Victory Way",
    "zip": "57319",
    "id": "18187"
  },
  {
    "name": "Ninette Pitre",
    "address": "2309 Ivy Street",
    "zip": "75958",
    "id": "cbad3"
  },
  {
    "name": null,
    "address": "1194 Gilded Bouled",
    "zip": "01523",
    "id": "3d9de"
  },
  {
    "name": "Audie Mckeever",
    "address": "9399 Main Avenue",
    "zip": "97057",
    "id": "8cf7c"
  },
  { "name": "", "address": null, "zip": "12563", "id": "12504" },
  {
    "name": "Kyrra Roche",
    "address": "6292 Cottage Street",
    "zip": "32244",
    "id": "d9c41"
  },
  {
    "name": "Deloras Haugen",
    "address": "3125 Rowan Avenue",
    "zip": "foo",
    "id": "3df57"
  },
  { "name": "Gabryelle Mireles", "zip": "02632", "id": "e845a" },
  { "name": "Courtney Heath", "address": null, "zip": "68059", "id": "1e597" },
  { "name": "Zitkalasa May", "address": "9907 Aurora Lane", "id": "58370" },
  { "name": "Joanni Weber", "address": null, "zip": "65001", "id": "1b508" },
  {
    "name": "Fischer Teal",
    "address": "3426 Lilypad Avenue",
    "zip": "26121",
    "id": "895c5"
  },
  { "name": "Chiquita Bivens", "address": "", "zip": "", "id": "4b82f" },
  {
    "name": "Farrell Campbell",
    "address": "3434 Cannon Route",
    "zip": "70524",
    "id": "f6eb2"
  },
  {
    "name": "Celia Sparrow",
    "address": "835 Storm Street",
    "zip": "72165",
    "id": "46c5b"
  },
  {
    "name": "Forsythia Owen",
    "address": "5102 Gray Bouled",
    "zip": "71932",
    "id": "1daae"
  },
  {
    "name": "",
    "address": "6107 Gray Bouled",
    "zip": "000000000000000000000000000",
    "id": "3619f"
  },
  {
    "name": "",
    "address": "9092 Monument Avenue",
    "zip": "63121",
    "id": "3c251"
  },
  {
    "name": "Corlie Hussey",
    "address": "7140 Forest Avenue",
    "zip": "43071",
    "id": "881df"
  },
  {
    "name": "Coreen Tuggle",
    "address": "8467 Dawn Lane",
    "zip": "90755",
    "id": "eb35c"
  },
  {
    "name": "Sicily Charles",
    "address": "7353 Beaver Bouled",
    "zip": "46147",
    "id": "586d9"
  },
  {
    "name": "Fatimah Vanburen",
    "address": "4481 Beaver Bouled",
    "zip": "00",
    "id": "29d55"
  },
  { "name": "", "address": "8938 Canal Lane", "zip": "19171", "id": "97220" },
  {
    "name": "Chastina Kirkland",
    "address": "5774 Silver Street",
    "zip": "",
    "id": "13b13"
  },
  { "name": "Rexanne Hairston", "address": "", "zip": "42240", "id": "c1e03" },
  {
    "name": "Henny Mccollum",
    "address": "9264 Flint Avenue",
    "zip": "02675",
    "id": "52864"
  },
  { "name": null, "address": "3670 Upper Lane", "zip": "85715", "id": "60ccc" },
  {
    "name": "James Mayes",
    "address": "8803 Beaver Bouled",
    "zip": "60544",
    "id": "b6d49"
  },
  {
    "name": "Steve Blackwell",
    "address": "7546 Moon Street",
    "zip": "alkdfjadlsfrjdsfrs",
    "id": "dd36b"
  },
  {
    "name": "Sheridan Swank",
    "address": "7572 Spring Lane",
    "zip": "18049",
    "id": "ace93"
  },
  {
    "name": "Marvel Pringle",
    "address": "5480 Gravel Row",
    "zip": "foo",
    "id": "06a9d"
  },
  {
    "name": "Wyomia Hinton",
    "address": null,
    "zip": "000000000000000000000000000",
    "id": "e792d"
  },
  {
    "name": "Chiquita Bivens",
    "address": "6955 Storm Way",
    "zip": "72616",
    "id": "31a9e"
  },
  {
    "name": "Hermonah Shephard",
    "address": "145 Greenfield Lane",
    "zip": "foo",
    "id": "3e98d"
  },
  {
    "name": "Dorie Bivens",
    "address": "1428 Blessing Avenue",
    "zip": "10156",
    "id": "fbee9"
  },
  {
    "name": "Farrell Campbell",
    "address": "1204 Lilypad Avenue",
    "zip": null,
    "id": "4f2f9"
  },
  { "name": "Didier Wang", "address": "", "zip": "95388", "id": "4f5f3" },
  {
    "name": "Nicodemo Wadsworth",
    "address": "7275 Moon Bouled",
    "zip": "78671",
    "id": "55d6b"
  },
  {
    "name": "Bathilda Whited",
    "address": "8573 Station Avenue",
    "zip": "05846",
    "id": "75215"
  },
  { "name": "", "address": "5921 Clove Lane", "zip": "04579", "id": "d969e" },
  {
    "name": "Melisse Brink",
    "address": "9014 Sunny Row",
    "zip": "66534",
    "id": "9146e"
  },
  {
    "name": "Wendolyn Sweat",
    "address": "652 University Avenue",
    "zip": "79838",
    "id": "35d29"
  },
  {
    "name": "Brittny Vang",
    "address": "7985 Storm Way",
    "zip": "35503",
    "id": "b2069"
  },
  {
    "name": "Batchelor Temple",
    "address": "6871 Fleet Row",
    "zip": "78144",
    "id": "ae267"
  },
  { "name": null, "address": null, "zip": null, "id": "5d4bb" },
  {
    "name": null,
    "address": "8356 Feathers Route",
    "zip": "20472",
    "id": "46f40"
  },
  { "name": "", "address": "1366 Low Route", "zip": "", "id": "f90e1" },
  {
    "name": "Eyrica Carman",
    "address": "1009 Wharf Way",
    "zip": "29912",
    "id": "38ff4"
  },
  {
    "name": "Greely Troy",
    "address": "2678 Chapel Street",
    "zip": "64494",
    "id": "d5155"
  },
  {
    "name": "Joanni Weber",
    "address": "9146 Elm Avenue",
    "zip": "19896",
    "id": "3d5bd"
  },
  { "name": "", "address": "4186 Brown Avenue", "zip": "foo", "id": "9424d" },
  {
    "name": "Alethia Newberry",
    "address": "7703 Mount Avenue",
    "zip": null,
    "id": "0e0a0"
  },
  {
    "name": "Saska Dowdy",
    "address": "672 Shadow Bouled",
    "zip": "05091",
    "id": "e6534"
  },
  {
    "name": "Carman Rockwell",
    "address": "1077 Locust Street",
    "zip": "60123",
    "id": "d8241"
  },
  {
    "name": "Wendell Shifflett",
    "address": "3466 Cave Route",
    "zip": "85074",
    "id": "edf9f"
  },
  {
    "name": "Shoshana Frantz",
    "address": "3345 Ivy Lane",
    "zip": "81215",
    "id": "c10eb"
  },
  { "name": "Henny Mccollum", "address": null, "zip": "11240", "id": "9b45d" },
  { "name": "Jasen ", "address": "6059 Valley Lane", "zip": "", "id": "190a2" },
  {
    "name": "Jareth Orr",
    "address": "2097 Clove Lane",
    "zip": "76852",
    "id": "472e9"
  },
  { "name": "", "address": "7040 Ash Avenue", "zip": "25526", "id": "69f55" },
  {
    "name": "Noura Barber",
    "address": "4280 Canal Lane",
    "zip": "89713",
    "id": "c5ffe"
  },
  {
    "name": "Karlijn Becerra",
    "address": "8417 Cave Route",
    "zip": "04924",
    "id": "d3dac"
  },
  { "name": "Euniss Marchand", "address": null, "zip": "78352", "id": "7ecee" },
  { "name": "Fatimah Vanburen", "zip": "00767", "id": "ddea7" },
  {
    "name": "Sima Joiner",
    "address": "946 Spring Lane",
    "zip": "46778",
    "id": "44a14"
  },
  {
    "name": "",
    "address": "2277 University Avenue",
    "zip": "0",
    "id": "67400"
  },
  {
    "name": "Mackarios Rountree",
    "address": "3722 Meadow Street",
    "zip": "",
    "id": "af94e"
  },
  {
    "name": null,
    "address": "7186 Feathers Avenue",
    "zip": "68123",
    "id": "9f8f5"
  },
  {
    "name": "Azalee Mosher",
    "address": "671 Lavender Bouled",
    "zip": "96207",
    "id": "d1fdf"
  },
  {
    "name": "Fatimah Vanburen",
    "address": "4965 Hill Lane",
    "zip": null,
    "id": "a9d33"
  },
  { "name": null, "address": "", "zip": "38145", "id": "16493" },
  {
    "name": "Chastina Kirkland",
    "address": "6720 Beech Lane",
    "zip": "89429",
    "id": "c310c"
  },
  {
    "name": "Erol Bridges",
    "address": "7973 Saffron Passage",
    "zip": "",
    "id": "2fc7a"
  },
  {
    "name": "Abdualla Kimmel",
    "address": "1486 Heart Avenue",
    "zip": "43970",
    "id": "4fd74"
  },
  { "name": "Amerah Lang", "address": "324 Gilded Bouled", "id": "1a225" },
  { "name": "Jerick Vidal", "address": "3539 Crimson Avenue", "id": "775be" },
  {
    "name": "Selena Cottrell",
    "address": "431 King Passage",
    "zip": "",
    "id": "2eb40"
  },
  {
    "name": "Filanthia Spriggs",
    "address": "3997 Summit Way",
    "zip": null,
    "id": "35677"
  },
  { "name": "", "address": null, "zip": "47327", "id": "5bd3e" },
  {
    "name": "Anstice Buck",
    "address": "1722 Medieval Avenue",
    "zip": "75207",
    "id": "3d4ef"
  },
  {
    "name": "Bathilda Whited",
    "address": "344 Water Row",
    "zip": null,
    "id": "5bad7"
  },
  { "name": "Sheridan Swank", "address": null, "zip": "25026", "id": "e24fa" },
  {
    "name": "Boden Medlin",
    "address": "8126 Lower Row",
    "zip": "06883",
    "id": "a79cf"
  },
  {
    "name": "Tennyson Dowdy",
    "address": "1968 Fox Street",
    "zip": null,
    "id": "90714"
  },
  {
    "name": "Donna Root",
    "address": "3773 Union Way",
    "zip": "28761",
    "id": "8c1ff"
  },
  {
    "name": "Ullrich Pinkston",
    "address": "7415 Lilypad Avenue",
    "zip": "",
    "id": "cb770"
  },
  { "name": "Lavina Neumann", "address": "", "zip": "99021", "id": "21dab" },
  {
    "name": "Eyrica Carman",
    "address": "9366 Medieval Avenue",
    "zip": "98082",
    "id": "83e0a"
  },
  {
    "name": "Soloma Her",
    "address": "7411 Winter Avenue",
    "zip": "58554",
    "id": "485b0"
  },
  {
    "name": "Lacole Barksdale",
    "address": "6913 King Passage",
    "zip": "49078",
    "id": "d1663"
  },
  { "name": "Retta Bandy", "address": "2267 Greenfield Street", "id": "35815" },
  {
    "name": "Madalyn Dawson",
    "address": "6625 King Passage",
    "zip": "999999999999999999999999 my 9 key is broken help me 99999999999999999999999999999999999999999999",
    "id": "21e60"
  },
  { "name": "", "address": "4998 Storm Street", "zip": "", "id": "a4681" },
  {
    "name": "Youri Moyer",
    "address": "1082 Cottage Lane",
    "zip": null,
    "id": "14947"
  },
  {
    "name": "Xuan Flint",
    "address": "4524 Cave Route",
    "zip": "",
    "id": "77d67"
  },
  {
    "name": "Azalee Mosher",
    "address": "3707 Feathers Route",
    "zip": "51048",
    "id": "49760"
  },
  { "name": "Stina Watson", "address": null, "zip": "38928", "id": "cde30" },
  { "address": "4944 Bury Street", "zip": "54446", "id": "f56d3" },
  { "name": "Jerick Vidal", "address": null, "zip": "75846", "id": "61fc6" },
  { "name": "Filanthia Spriggs", "address": "", "zip": "21863", "id": "5f337" },
  { "name": "Riesa Dempsey", "address": null, "zip": "", "id": "315cd" },
  {
    "name": "Hutton Sam",
    "address": "4122 Luna Lane",
    "zip": "30370",
    "id": "d2524"
  },
  {
    "name": "Alcado Ashford",
    "address": "7214 Chapel Street",
    "zip": "",
    "id": "10066"
  },
  {
    "name": "Jarrod Lau",
    "address": "6994 Mill Row",
    "zip": "0",
    "id": "a777d"
  },
  {
    "name": "Anstice Buck",
    "address": "9190 Lotus Street",
    "zip": "42240",
    "id": "67609"
  },
  {
    "name": "Jasen ",
    "address": "550 Arctic Street",
    "zip": "58497",
    "id": "6185e"
  },
  {
    "name": null,
    "address": "4875 Storm Street",
    "zip": "72410",
    "id": "77447"
  },
  {
    "name": "Dominic Christensen",
    "address": "8160 Mandarin Route",
    "zip": "0",
    "id": "d6b98"
  },
  { "name": null, "address": "2091 Fox Street", "zip": "", "id": "a533b" },
  { "name": null, "address": "2032 Oak Lane", "zip": "36267", "id": "daff7" },
  {
    "name": "Fischer Teal",
    "address": "1871 Cottage Street",
    "zip": "50273",
    "id": "5f7f6"
  },
  { "name": "", "zip": "wut lol", "id": "63960" },
  {
    "name": "Katlin Orozco",
    "address": "8590 Saffron Passage",
    "zip": null,
    "id": "86463"
  },
  {
    "name": null,
    "address": "7426 Greenfield Street",
    "zip": "",
    "id": "e9a8a"
  },
  {
    "name": "Marcenia Drummond",
    "address": "2460 Coral Lane",
    "zip": "77664",
    "id": "3977e"
  },
  { "name": "Jamison Butler", "address": null, "zip": "68105", "id": "a1337" },
  {
    "name": null,
    "address": "5066 Clove Route",
    "zip": "01863",
    "id": "dc19f"
  },
  { "name": "Lenora Huey", "address": "", "zip": "91905", "id": "1ca5e" },
  {
    "name": "Darchelle Wright",
    "address": "3766 Elm Avenue",
    "zip": "71443",
    "id": "b214b"
  },
  {
    "name": "",
    "address": "9519 Ironwood Avenue",
    "zip": "07932",
    "id": "f8280"
  },
  {
    "name": "Cleandro Mccormick",
    "address": "229 Olive Avenue",
    "zip": "66683",
    "id": "91aaa"
  },
  {
    "name": "Marcenia Drummond",
    "address": "3058 Castle Lane",
    "zip": "20902",
    "id": "26bbd"
  },
  {
    "name": "Didier Wang",
    "address": "8279 Cross Way",
    "zip": "35096",
    "id": "f2a78"
  },
  {
    "name": "Germaine Burkhart",
    "address": "5453 Ivy Street",
    "zip": "",
    "id": "ac89c"
  },
  { "name": "Amerah Lang", "address": null, "zip": "56481", "id": "b7efa" },
  {
    "name": "Silvain Howard",
    "address": "9877 Gem Avenue",
    "zip": "wut lol",
    "id": "eb348"
  },
  {
    "name": "Eyrica Carman",
    "address": "6213 University Avenue",
    "zip": "31716",
    "id": "5a775"
  },
  {
    "name": "Porsche Ali",
    "address": "6592 Gilded Bouled",
    "zip": "55040",
    "id": "d8fb3"
  },
  {
    "name": "Ula Coughlin",
    "address": "6311 Mill Row",
    "zip": "40410",
    "id": "72755"
  },
  { "name": "Alynah Phipps", "address": "1187 Greenfield Lane", "id": "4af9b" },
  {
    "name": "Avril Dunlap",
    "address": "6554 Maple Avenue",
    "zip": "",
    "id": "e7f6c"
  },
  { "name": "Burchell French", "address": "", "zip": "96284", "id": "ece99" },
  { "name": "Donte Heckman", "address": null, "zip": "02558", "id": "db6c5" },
  {
    "address": null,
    "zip": "999999999999999999999999 my 9 key is broken help me 99999999999999999999999999999999999999999999",
    "id": "2f192"
  },
  { "name": "Ajanabh Hammett", "address": null, "zip": "88543", "id": "5eacf" },
  {
    "name": "Riesa Dempsey",
    "address": "2833 Spring Lane",
    "zip": "81427",
    "id": "4310c"
  },
  {
    "name": "Chevaun Sanborn",
    "address": "8131 Wharf Way",
    "zip": "93747",
    "id": "cdd2c"
  },
  {
    "name": "Stana Fortenberry",
    "address": "8464 Gray Bouled",
    "zip": "",
    "id": "3f9da"
  },
  { "name": null, "address": "7383 Meadow Street", "zip": null, "id": "20401" },
  {
    "name": "Emonuel Luther",
    "address": "2018 Arctic Street",
    "zip": "33144",
    "id": "c9bde"
  },
  {
    "name": "Shawntile Newcomb",
    "address": "7378 Dawn Lane",
    "zip": "95374",
    "id": "1af4d"
  },
  {
    "name": "Victor Chun",
    "address": "3962 Greenfield Street",
    "zip": "58051",
    "id": "eb2c3"
  },
  { "name": "Caia Harrell", "address": null, "zip": "", "id": "d3724" },
  { "name": "Bathilda Whited", "address": null, "zip": "62478", "id": "11ef3" },
  {
    "name": "Eston Flemming",
    "address": "9753 Maple Avenue",
    "zip": null,
    "id": "5622f"
  },
  {
    "name": "",
    "address": "2091 Chapel Street",
    "zip": "79114",
    "id": "f0ed2"
  },
  { "name": "", "address": "", "zip": "00731", "id": "cc5e4" },
  {
    "name": "Semelle Brill",
    "address": "453 Champion Bouled",
    "zip": "14020",
    "id": "0ddd1"
  },
  { "name": null, "address": "8588 Polygon Route", "zip": null, "id": "c3210" },
  {
    "name": "Diantha Ho",
    "address": "1292 Saffron Avenue",
    "zip": "22646",
    "id": "bab63"
  },
  {
    "name": "Awilda Oliver",
    "address": "8617 Lotus Street",
    "zip": null,
    "id": "2a0af"
  },
  {
    "name": "Aciano Stoddard",
    "address": "9684 Rowan Avenue",
    "zip": "83680",
    "id": "9b97f"
  },
  {
    "name": "Steve Blackwell",
    "address": "8096 Feathers Route",
    "zip": "26743",
    "id": "f9cec"
  },
  { "name": "", "address": null, "zip": "70611", "id": "0c58b" },
  {
    "name": "Forsythia Owen",
    "address": "9016 Storm Way",
    "zip": "62684",
    "id": "ef409"
  },
  {
    "name": "Jaynell Villasenor",
    "address": "6131 Ash Avenue",
    "zip": "00",
    "id": "04ded"
  },
  { "name": null, "address": "7587 Moon Street", "zip": "", "id": "d5969" },
  {
    "name": "",
    "address": "9704 Crystal Bouled",
    "zip": "33458",
    "id": "16ca9"
  },
  {
    "name": "Mannyng Burris",
    "address": "5140 Heart Avenue",
    "zip": null,
    "id": "77aed"
  },
  {
    "name": "Reney Fitzpatrick",
    "address": "913 King Passage",
    "zip": "wut lol",
    "id": "be96e"
  },
  {
    "name": "Ioseph Cobb",
    "address": "749 Snowflake Route",
    "zip": "85074",
    "id": "2ac98"
  },
  {
    "name": "Jessaca Spalding",
    "address": "7414 Ivy Lane",
    "zip": "50363",
    "id": "b2b82"
  },
  { "name": null, "address": null, "zip": "45415", "id": "641bb" },
  {
    "name": "Millborn Rohr",
    "address": "1114 Knight Street",
    "zip": "52229",
    "id": "a554c"
  },
  {
    "name": "Melicent Peoples",
    "address": "7040 Forest Avenue",
    "zip": "",
    "id": "79b86"
  },
  {
    "name": "Rozalynne Farias",
    "address": null,
    "zip": "55450",
    "id": "a8f76"
  },
  {
    "name": "Madalyn Childress",
    "address": "5490 Providence Bouled",
    "zip": "00000",
    "id": "0863a"
  },
  {
    "name": "Annalisa Getz",
    "address": "5122 Gray Bouled",
    "zip": "98405",
    "id": "6a67a"
  },
  { "name": null, "address": "", "zip": "95462", "id": "8cd62" },
  {
    "name": "Nacola Fowler",
    "address": "8283 Polygon Route",
    "zip": null,
    "id": "85f40"
  },
  {
    "name": "Cindie Kessler",
    "address": "4515 Bath Route",
    "zip": "39566",
    "id": "49525"
  },
  { "name": "Karline Timmons", "address": "", "zip": "66441", "id": "be2a6" },
  {
    "name": "Caia Harrell",
    "address": "8783 Union Way",
    "zip": "",
    "id": "bda50"
  },
  {
    "name": "Melisse Brink",
    "address": "9812 Nightingale Bouled",
    "zip": "06488",
    "id": "2a83d"
  },
  {
    "name": "Kendrie Harmon",
    "address": "8682 Arctic Street",
    "zip": "32971",
    "id": "92bab"
  },
  {
    "name": "Lenora Huey",
    "address": "1258 Cathedral Route",
    "zip": "33355",
    "id": "37025"
  },
  {
    "name": "Carman Rockwell",
    "address": "9364 Crimson Avenue",
    "zip": "65633",
    "id": "7fdd1"
  },
  {
    "name": "Donna Root",
    "address": "9873 Storm Street",
    "zip": "32465",
    "id": "df5e2"
  },
  { "name": null, "address": "", "zip": "36321", "id": "9f0bd" },
  {
    "name": "Sergiu Fagan",
    "address": "5933 Rowan Lane",
    "zip": "27053",
    "id": "1aac2"
  },
  { "name": "Sima Joiner", "address": "", "zip": "68406", "id": "7d1f0" },
  {
    "name": "Hutton Sam",
    "address": "778 Greenfield Street",
    "zip": "52407",
    "id": "6b1dc"
  },
  { "name": "Tosha Gibson", "address": "", "zip": null, "id": "01d83" },
  {
    "name": "Jessaca Spalding",
    "address": "7414 Ivy Lane",
    "zip": "50363",
    "id": "d9e3b"
  },
  {
    "name": "Florus Blaylock",
    "address": "1907 Station Avenue",
    "zip": "",
    "id": "13bb9"
  },
  {
    "name": null,
    "address": "1130 Gilded Bouled",
    "zip": "30204",
    "id": "48fbe"
  },
  { "name": "Rhianon Jarrett", "address": null, "id": "439eb" },
  {
    "name": "Laoise Berryman",
    "address": "4068 Fox Street",
    "zip": "01822",
    "id": "f2c1c"
  },
  {
    "name": "Jacques Colvin",
    "address": "3305 Cave Route",
    "zip": null,
    "id": "7c0ab"
  },
  {
    "name": "James Mayes",
    "address": "9873 Jade Way",
    "zip": "16826",
    "id": "2b51f"
  },
  { "name": "Ulysses Negrete", "address": null, "zip": "72738", "id": "058d4" },
  {
    "name": "Shoshana Frantz",
    "address": "719 Feathers Avenue",
    "zip": "64639",
    "id": "f9910"
  },
  {
    "name": "Jessyka Ouellette",
    "address": "8217 Heart Avenue",
    "zip": "61937",
    "id": "07beb"
  },
  { "name": "Sergiu Fagan", "address": "", "zip": "15123", "id": "ec2e4" },
  {
    "name": "Jessyka Ouellette",
    "address": "8374 Lawn Lane",
    "zip": "49945",
    "id": "3b389"
  },
  { "name": null, "address": "7790 Beaver Bouled", "zip": null, "id": "c0072" },
  {
    "name": "Abdualla Kimmel",
    "address": "1264 Blessing Avenue",
    "zip": "50541",
    "id": "f07c2"
  },
  {
    "name": "Retta Bandy",
    "address": "9160 Lotus Street",
    "zip": "",
    "id": "c6266"
  },
  { "name": "Kayla Holden", "address": null, "zip": "43336", "id": "edb4c" },
  {
    "name": null,
    "address": "7760 Rowan Avenue",
    "zip": "25715",
    "id": "60ec2"
  },
  {
    "name": "Abdualla Kimmel",
    "address": "4834 Art Lane",
    "zip": "00",
    "id": "6de77"
  },
  { "name": null, "address": "", "zip": null, "id": "f7424" },
  {
    "name": "Olin Sykes",
    "address": "1843 Aurora Lane",
    "zip": "64030",
    "id": "682ab"
  },
  {
    "name": "Greely Troy",
    "address": "565 Clove Lane",
    "zip": "62067",
    "id": "ac598"
  },
  {
    "name": "Raymundo Cuellar",
    "address": "2370 Gem Avenue",
    "zip": "01119",
    "id": "11d51"
  },
  {
    "name": "Cilly Long",
    "address": "5240 Trinity Row",
    "zip": "00",
    "id": "a8952"
  },
  { "name": "", "address": "8857 Dawn Lane", "zip": "35175", "id": "212d5" },
  {
    "name": "Zitkalasa May",
    "address": "1903 Autumn Way",
    "zip": "75414",
    "id": "90d2f"
  },
  { "name": null, "address": null, "zip": "47917", "id": "dbb62" },
  { "name": "", "address": "8026 Rowan Lane", "zip": "93266", "id": "a272e" },
  {
    "name": "Ullrich Pinkston",
    "address": "5461 Legend Bouled",
    "zip": "42456",
    "id": "0f2ff"
  },
  { "name": "Porsche Ali", "address": null, "zip": "89301", "id": "b0d3c" },
  {
    "name": "Schmuela Finley",
    "address": "8992 Gray Bouled",
    "zip": "52639",
    "id": "64cfd"
  },
  { "name": "Filanthia Spriggs", "address": "", "zip": null, "id": "b5bf4" },
  {
    "name": "Josef Lange",
    "address": "9640 Innovation Street",
    "zip": "53018",
    "id": "14b48"
  },
  {
    "name": "Josalynn Quinlan",
    "address": null,
    "zip": "48628",
    "id": "04f85"
  },
  { "name": null, "address": null, "zip": "52729", "id": "b333d" },
  {
    "name": null,
    "address": "3698 Cannon Route",
    "zip": "73749",
    "id": "171e8"
  },
  { "name": null, "address": "4121 Lower Row", "zip": "45105", "id": "57c45" },
  { "name": "Bethia Kimbrough", "address": "", "zip": "32862", "id": "cc881" },
  { "name": "Jessyka Ouellette", "address": null, "zip": null, "id": "117a3" },
  {
    "name": "Chevaun Sanborn",
    "address": "2397 Crimson Avenue",
    "zip": "28738",
    "id": "e577f"
  },
  { "name": "Rhianon Jarrett", "address": "", "zip": "09865", "id": "72552" },
  {
    "name": "Emonuel Luther",
    "address": "6791 Phoenix Street",
    "zip": "23047",
    "id": "acf63"
  },
  {
    "name": "Alethia Newberry",
    "address": "5940 Bury Street",
    "zip": "49084",
    "id": "ff173"
  },
  {
    "name": "Anstice Buck",
    "address": "9957 Water Row",
    "zip": "",
    "id": "5972d"
  },
  {
    "name": "Arakne Tuck",
    "address": "9808 Legend Bouled",
    "zip": "23123",
    "id": "2b3a2"
  },
  {
    "name": "Nicodemo Wadsworth",
    "address": "",
    "zip": "80012",
    "id": "8ddb4"
  },
  { "name": "Hassain Cronin", "address": "5165 Union Way", "id": "7cbc0" },
  {
    "name": "Georgiana Sandoval",
    "address": "8531 Upper Lane",
    "zip": "80721",
    "id": "4e375"
  },
  { "name": "", "address": "2059 University Route", "zip": "", "id": "32768" },
  { "name": "", "zip": "49247", "id": "9002e" },
  {
    "name": "Viennia Sturm",
    "address": "1523 Marble Way",
    "zip": "",
    "id": "e9941"
  },
  {
    "name": "Margareta Counts",
    "address": "8507 Low Route",
    "zip": "58558",
    "id": "99a0f"
  },
  {
    "name": "",
    "address": "819 Feathers Route",
    "zip": "27636",
    "id": "317c0"
  },
  {
    "name": "",
    "address": "7580 Blessing Avenue",
    "zip": "29202",
    "id": "6c21f"
  },
  { "name": "Kymme Pepper", "zip": "75380", "id": "8d51d" },
  { "name": "", "address": "5307 Hill Lane", "zip": null, "id": "8e777" },
  {
    "name": "",
    "address": "7529 Shadow Bouled",
    "zip": "70380",
    "id": "86e84"
  },
  { "name": "Alynah Phipps", "address": "", "zip": "34272", "id": "a5ce8" },
  {
    "name": "Karline Timmons",
    "address": "6473 Spring Lane",
    "zip": "93669",
    "id": "ae8fb"
  },
  { "name": "Lanie Driver", "address": "", "zip": "93277", "id": "23cd0" },
  {
    "name": "Josef Lange",
    "address": "5529 Aurora Lane",
    "zip": "46102",
    "id": "2c20f"
  },
  {
    "name": "Saska Dowdy",
    "address": "4215 Gray Bouled",
    "zip": "",
    "id": "5caa2"
  },
  { "name": "", "address": "492 Marble Way", "zip": null, "id": "ae6c4" },
  {
    "name": "Rexanne Hairston",
    "address": null,
    "zip": "92174",
    "id": "d6fc8"
  },
  {
    "name": "Fatimah Vanburen",
    "address": "3812 Ironwood Avenue",
    "zip": "56137",
    "id": "d2470"
  },
  { "name": null, "address": "1661 Lawn Lane", "zip": "", "id": "eedbc" },
  { "name": null, "address": "", "zip": "", "id": "82056" },
  { "name": "Amerah Lang", "address": null, "zip": "27569", "id": "d0364" },
  {
    "name": "Azalee Mosher",
    "address": "1351 Providence Bouled",
    "zip": "04963",
    "id": "15930"
  },
  {
    "name": "Ramonde Pena",
    "address": "6667 Union Way",
    "zip": "000000000000000000000000000",
    "id": "abaf2"
  },
  { "name": null, "zip": "", "id": "63735" },
  {
    "name": "Silvain Howard",
    "address": "5757 Forest Avenue",
    "zip": "",
    "id": "282de"
  },
  { "name": "", "address": "6301 Mount Avenue", "zip": "76002", "id": "f8731" },
  { "name": "", "address": "6168 Castle Lane", "zip": "62567", "id": "7b8c3" },
  { "name": "", "address": "9346 Jade Way", "zip": "", "id": "fdc97" },
  {
    "name": "Margareta Counts",
    "address": null,
    "zip": "72433",
    "id": "d5bb8"
  },
  {
    "name": "Gabryelle Mireles",
    "address": null,
    "zip": "07878",
    "id": "66755"
  },
  {
    "name": "Wendell Shifflett",
    "address": "2494 Fox Street",
    "zip": "",
    "id": "76b52"
  },
  {
    "name": null,
    "address": "7800 Lotus Street",
    "zip": "37345",
    "id": "bc576"
  },
  { "name": "Annis Alley", "address": "", "zip": "20764", "id": "1cb14" },
  {
    "name": "Autrey Hinkle",
    "address": "9456 Greenfield Street",
    "zip": "32115",
    "id": "53557"
  },
  { "name": "", "address": "3476 Vale Passage", "id": "622f4" },
  {
    "name": "Reney Fitzpatrick",
    "address": "435 Clove Route",
    "zip": "",
    "id": "2d16b"
  },
  {
    "name": "Jessyka Ouellette",
    "address": "900 Winter Avenue",
    "zip": "61611",
    "id": "b5c89"
  },
  { "name": "Tennyson Dowdy", "address": "", "zip": "", "id": "c32fb" },
  {
    "name": "Darchelle Wright",
    "address": "54 Summit Way",
    "zip": "53214",
    "id": "2278e"
  },
  {
    "name": "Caitrinn Klinger",
    "address": "3063 Cathedral Route",
    "zip": "13308",
    "id": "8775e"
  },
  {
    "name": "Fischer Teal",
    "address": "8465 Parkside Lane",
    "zip": "14840",
    "id": "0a535"
  },
  {
    "name": "Nicodemo Wadsworth",
    "address": "3571 Mandarin Route",
    "zip": "73848",
    "id": "172d2"
  },
  {
    "name": "Corlie Hussey",
    "address": "6155 Main Avenue",
    "zip": "",
    "id": "d357d"
  },
  {
    "name": "Clarice Collier",
    "address": "3460 Oak Lane",
    "zip": "34753",
    "id": "9e57f"
  },
  {
    "name": "Madalyn Dawson",
    "address": null,
    "zip": "999999999999999999999999 my 9 key is broken help me 99999999999999999999999999999999999999999999",
    "id": "0c9a3"
  },
  {
    "name": "Coretta Hill",
    "address": "260 Castle Lane",
    "zip": "78054",
    "id": "b891a"
  },
  {
    "name": null,
    "address": "1474 Aurora Avenue",
    "zip": "38317",
    "id": "e8328"
  },
  { "name": "Anstice Buck", "address": "", "zip": "12593", "id": "2662d" },
  { "name": "Ibtihaj Fusco", "address": null, "zip": "20176", "id": "59e56" },
  { "name": null, "address": "6040 Autumn Way", "zip": "67456", "id": "17a12" },
  {
    "name": "Victor Chun",
    "address": "853 Polygon Route",
    "zip": "41642",
    "id": "c605c"
  },
  {
    "name": "Shandel Key",
    "address": "2264 Ash Avenue",
    "zip": "61880",
    "id": "55571"
  },
  {
    "name": "Edwin Schmitt",
    "address": "3365 Arctic Street",
    "zip": "",
    "id": "76346"
  },
  { "name": "Autrey Hinkle", "address": null, "zip": "02837", "id": "71b3a" },
  {
    "name": "Autrey Hinkle",
    "address": "6413 Canal Lane",
    "zip": "74004",
    "id": "ce15b"
  },
  {
    "name": null,
    "address": "1453 Greenfield Street",
    "zip": "03258",
    "id": "42485"
  },
  {
    "name": null,
    "address": "2065 Cottage Lane",
    "zip": "78634",
    "id": "6e53a"
  },
  {
    "name": "Henny Mccollum",
    "address": "344 Low Route",
    "zip": "66949",
    "id": "38725"
  },
  {
    "name": "Fatimah Vanburen",
    "address": "9936 Beech Lane",
    "zip": null,
    "id": "392f9"
  },
  { "name": "", "address": "698 Beaver Bouled", "zip": "41848", "id": "fbab0" },
  {
    "name": "Boden Medlin",
    "address": "7510 Ivy Lane",
    "zip": "89824",
    "id": "bbf95"
  },
  { "name": "Thomson Moeller", "address": "", "zip": "97530", "id": "b2e9a" },
  { "name": "", "address": "4642 Upper Lane", "zip": "10306", "id": "9b245" },
  {
    "name": null,
    "address": "6951 Legend Avenue",
    "zip": "36863",
    "id": "e202a"
  },
  {
    "name": "Stefani Huggins",
    "address": "4811 Winter Avenue",
    "zip": "94505",
    "id": "99134"
  },
  { "name": "Wendolyn Sweat", "address": null, "zip": null, "id": "940b2" },
  {
    "name": "Annas Lofton",
    "address": "9346 Feathers Route",
    "zip": "83832",
    "id": "4b81f"
  },
  { "name": null, "address": "7231 Judge Row", "zip": null, "id": "bede0" },
  { "name": "Silvain Howard", "address": null, "zip": "", "id": "81609" },
  { "name": "Bathilda Whited", "address": null, "zip": "10547", "id": "641ab" },
  {
    "name": "Caitrinn Klinger",
    "address": "1502 Cave Route",
    "zip": "13143",
    "id": "bb2bb"
  },
  {
    "name": "Florus Blaylock",
    "address": "6785 Sunny Row",
    "zip": "29240",
    "id": "bba96"
  },
  { "name": "Marvel Pringle", "address": "", "zip": "96817", "id": "aebb5" },
  {
    "name": "Youri Moyer",
    "address": "6932 Mandarin Route",
    "zip": "65444",
    "id": "e609b"
  },
  {
    "name": "Panini Biddle",
    "address": "2425 Fleet Row",
    "zip": "93042",
    "id": "8c632"
  },
  {
    "name": "Johannah Mcfadden",
    "address": null,
    "zip": "02196",
    "id": "eae71"
  },
  {
    "name": "Retta Bandy",
    "address": "5977 Shadow Bouled",
    "zip": "08091",
    "id": "0ce45"
  },
  {
    "name": "Merline Jewett",
    "address": "442 Beech Lane",
    "zip": null,
    "id": "f4afa"
  },
  {
    "name": "Sergiu Fagan",
    "address": "2752 Juniper Avenue",
    "zip": "84314",
    "id": "a67a3"
  },
  {
    "name": "Shandel Key",
    "address": "1901 Oak Lane",
    "zip": "48890",
    "id": "c8c80"
  },
  { "name": "", "address": "", "zip": "68816", "id": "c803b" },
  {
    "name": "Lorita Simpson",
    "address": "8187 Storm Street",
    "zip": "29528",
    "id": "871e6"
  },
  {
    "name": "Autrey Hinkle",
    "address": "6395 Upper Lane",
    "zip": "00000",
    "id": "65f88"
  },
  {
    "name": "Karline Timmons",
    "address": "7089 Cave Route",
    "zip": null,
    "id": "6e48a"
  },
  {
    "name": "Alethia Newberry",
    "address": "1975 Gravel Row",
    "zip": "32712",
    "id": "19a0a"
  },
  {
    "name": "Darchelle Wright",
    "address": "8996 Sunny Row",
    "zip": "78015",
    "id": "f3052"
  },
  {
    "name": "Madalyn Childress",
    "address": "2690 Mandarin Route",
    "zip": "95026",
    "id": "15952"
  }
]
